[{"OBJECT_NAME":"STARLINK-3917","OBJECT_ID":"2022-051BE","EPOCH":"2026-03-09T12:33:35.622144","MEAN_MOTION":15.08839707,"ECCENTRICITY":0.00013509,"INCLINATION":53.2164,"RA_OF_ASC_NODE":119.8689,"ARG_OF_PERICENTER":94.3359,"MEAN_ANOMALY":265.7788,"EPHEMERIS_TYPE":0,"CLASSIFICATION_TYPE":"U","NORAD_CAT_ID":52588,"ELEMENT_SET_NO":999,"REV_AT_EPOCH":21156,"BSTAR":8.421994e-6,"MEAN_MOTION_DOT":-1.54e-6,"MEAN_MOTION_DDOT":0},{"OBJECT_NAME":"NOAA 16 DEB","OBJECT_ID":"2000-055BZ","EPOCH":"2026-03-09T09:57:46.840608","MEAN_MOTION":15.04968987,"ECCENTRICITY":0.00133628,"INCLINATION":98.8453,"RA_OF_ASC_NODE":286.076,"ARG_OF_PERICENTER":194.204,"MEAN_ANOMALY":165.8809,"EPHEMERIS_TYPE":0,"CLASSIFICATION_TYPE":"U","NORAD_CAT_ID":41142,"ELEMENT_SET_NO":999,"REV_AT_EPOCH":53866,"BSTAR":0.0051237154,"MEAN_MOTION_DOT":0.00073426,"MEAN_MOTION_DDOT":0}]
